{"type": "FeatureCollection", "features": [ {"type": "Feature", "properties": {"norad_id": 33825, "name": "COSMOS 2251 DEB", "group": "cosmos-2251-debris", "lat": -46.625425168279165, "lon": -14.545409808175771, "alt_km": 610.3200481754611, "timestamp": "2025-12-25T09:48:52.681865+00:00", "meta": {"OBJECT_NAME": "COSMOS 2251 DEB", "OBJECT_ID": "1993-036BS", "EPOCH": "2025-12-24T22:48:14.857344", "MEAN_MOTION": 14.6988207, "ECCENTRICITY": 0.0085105, "INCLINATION": 73.9851, "RA_OF_ASC_NODE": 4.0441, "ARG_OF_PERICENTER": 328.2698, "MEAN_ANOMALY": 76.3252, "EPHEMERIS_TYPE": 0, "CLASSIFICATION_TYPE": "U", "NORAD_CAT_ID": 33825, "ELEMENT_SET_NO": 999, "REV_AT_EPOCH": 89059, "BSTAR": 0.0011144, "MEAN_MOTION_DOT": 7.02e-05, "MEAN_MOTION_DDOT": 0}, "tle": {"line1": "1 33825U 93036BS  25358.95017196  .00007020  00000+0  11144-2 0  9994", "line2": "2 33825  73.9851   4.0441 0085105 328.2698  76.3252 14.69882070890597"}}, "geometry": {"type": "Point", "coordinates": [-14.545409808175771, -46.625425168279165]}}, {"type": "Feature", "properties": {"norad_id": 33826, "name": "COSMOS 2251 DEB", "group": "cosmos-2251-debris", "lat": 72.18254481799421, "lon": 143.30932824138972, "alt_km": 662.6714177449339, "timestamp": "2025-12-25T09:48:52.681876+00:00", "meta": {"OBJECT_NAME": "COSMOS 2251 DEB", "OBJECT_ID": "1993-036BT", "EPOCH": "2025-12-25T03:00:31.147200", "MEAN_MOTION": 14.51774287, "ECCENTRICITY": 0.0082518, "INCLINATION": 74.064, "RA_OF_ASC_NODE": 26.5897, "ARG_OF_PERICENTER": 66.7809, "MEAN_ANOMALY": 349.2554, "EPHEMERIS_TYPE": 0, "CLASSIFICATION_TYPE": "U", "NORAD_CAT_ID": 33826, "ELEMENT_SET_NO": 999, "REV_AT_EPOCH": 87949, "BSTAR": 0.00047814, "MEAN_MOTION_DOT": 1.981e-05, "MEAN_MOTION_DDOT": 0}, "tle": {"line1": "1 33826U 93036BT  25359.12536050  .00001981  00000+0  47814-3 0  9994", "line2": "2 33826  74.0640  26.5897 0082518  66.7809 349.2554 14.51774287879497"}}, "geometry": {"type": "Point", "coordinates": [143.30932824138972, 72.18254481799421]}}, {"type": "Feature", "properties": {"norad_id": 33828, "name": "COSMOS 2251 DEB", "group": "cosmos-2251-debris", "lat": 16.586673338154583, "lon": -140.58052816424552, "alt_km": 744.9720267401699, "timestamp": "2025-12-25T09:48:52.681886+00:00", "meta": {"OBJECT_NAME": "COSMOS 2251 DEB", "OBJECT_ID": "1993-036BV", "EPOCH": "2025-12-25T00:17:48.836256", "MEAN_MOTION": 14.44366636, "ECCENTRICITY": 0.0029519, "INCLINATION": 74.045, "RA_OF_ASC_NODE": 215.2685, "ARG_OF_PERICENTER": 286.3206, "MEAN_ANOMALY": 189.4918, "EPHEMERIS_TYPE": 0, "CLASSIFICATION_TYPE": "U", "NORAD_CAT_ID": 33828, "ELEMENT_SET_NO": 999, "REV_AT_EPOCH": 88490, "BSTAR": 0.00037982, "MEAN_MOTION_DOT": 1.288e-05, "MEAN_MOTION_DDOT": 0}, "tle": {"line1": "1 33828U 93036BV  25359.01237079  .00001288  00000+0  37982-3 0  9998", "line2": "2 33828  74.0450 215.2685 0029519 286.3206 189.4918 14.44366636884900"}}, "geometry": {"type": "Point", "coordinates": [-140.58052816424552, 16.586673338154583]}}, {"type": "Feature", "properties": {"norad_id": 33830, "name": "COSMOS 2251 DEB", "group": "cosmos-2251-debris", "lat": -58.22076609004666, "lon": 177.99419331002116, "alt_km": 618.2988515462503, "timestamp": "2025-12-25T09:48:52.681897+00:00", "meta": {"OBJECT_NAME": "COSMOS 2251 DEB", "OBJECT_ID": "1993-036BX", "EPOCH": "2025-12-25T00:51:34.582752", "MEAN_MOTION": 14.7702343, "ECCENTRICITY": 0.0042753, "INCLINATION": 74.0307, "RA_OF_ASC_NODE": 206.2562, "ARG_OF_PERICENTER": 323.8791, "MEAN_ANOMALY": 151.0365, "EPHEMERIS_TYPE": 0, "CLASSIFICATION_TYPE": "U", "NORAD_CAT_ID": 33830, "ELEMENT_SET_NO": 999, "REV_AT_EPOCH": 89653, "BSTAR": 0.00076402, "MEAN_MOTION_DOT": 5.439e-05, "MEAN_MOTION_DDOT": 0}, "tle": {"line1": "1 33830U 93036BX  25359.03581693  .00005439  00000+0  76402-3 0  9999", "line2": "2 33830  74.0307 206.2562 0042753 323.8791 151.0365 14.77023430896530"}}, "geometry": {"type": "Point", "coordinates": [177.99419331002116, -58.22076609004666]}}, {"type": "Feature", "properties": {"norad_id": 33832, "name": "COSMOS 2251 DEB", "group": "cosmos-2251-debris", "lat": -30.518001084857413, "lon": 176.0956830100924, "alt_km": 703.0817478223335, "timestamp": "2025-12-25T09:48:52.681911+00:00", "meta": {"OBJECT_NAME": "COSMOS 2251 DEB", "OBJECT_ID": "1993-036BZ", "EPOCH": "2025-12-24T23:08:33.802368", "MEAN_MOTION": 14.60787327, "ECCENTRICITY": 0.0024033, "INCLINATION": 74.0528, "RA_OF_ASC_NODE": 186.6476, "ARG_OF_PERICENTER": 215.359, "MEAN_ANOMALY": 295.1614, "EPHEMERIS_TYPE": 0, "CLASSIFICATION_TYPE": "U", "NORAD_CAT_ID": 33832, "ELEMENT_SET_NO": 999, "REV_AT_EPOCH": 88603, "BSTAR": 0.0014396, "MEAN_MOTION_DOT": 7.035e-05, "MEAN_MOTION_DDOT": 0}, "tle": {"line1": "1 33832U 93036BZ  25358.96428012  .00007035  00000+0  14396-2 0  9994", "line2": "2 33832  74.0528 186.6476 0024033 215.3590 295.1614 14.60787327886030"}}, "geometry": {"type": "Point", "coordinates": [176.0956830100924, -30.518001084857413]}}, {"type": "Feature", "properties": {"norad_id": 33835, "name": "COSMOS 2251 DEB", "group": "cosmos-2251-debris", "lat": -53.230806915783624, "lon": -80.63303480606743, "alt_km": 704.7892674296099, "timestamp": "2025-12-25T09:48:52.681922+00:00", "meta": {"OBJECT_NAME": "COSMOS 2251 DEB", "OBJECT_ID": "1993-036CC", "EPOCH": "2025-12-24T23:40:18.180192", "MEAN_MOTION": 14.6236315, "ECCENTRICITY": 0.0053761, "INCLINATION": 74.0572, "RA_OF_ASC_NODE": 77.6841, "ARG_OF_PERICENTER": 127.5948, "MEAN_ANOMALY": 44.1979, "EPHEMERIS_TYPE": 0, "CLASSIFICATION_TYPE": "U", "NORAD_CAT_ID": 33835, "ELEMENT_SET_NO": 999, "REV_AT_EPOCH": 88968, "BSTAR": 0.0009321, "MEAN_MOTION_DOT": 4.782e-05, "MEAN_MOTION_DDOT": 0}, "tle": {"line1": "1 33835U 93036CC  25358.98632153  .00004782  00000+0  93210-3 0  9991", "line2": "2 33835  74.0572  77.6841 0053761 127.5948  44.1979 14.62363150889684"}}, "geometry": {"type": "Point", "coordinates": [-80.63303480606743, -53.230806915783624]}}, {"type": "Feature", "properties": {"norad_id": 33836, "name": "COSMOS 2251 DEB", "group": "cosmos-2251-debris", "lat": -26.06650325330277, "lon": -134.1224773317751, "alt_km": 640.5251737296458, "timestamp": "2025-12-25T09:48:52.681932+00:00", "meta": {"OBJECT_NAME": "COSMOS 2251 DEB", "OBJECT_ID": "1993-036CD", "EPOCH": "2025-12-24T16:13:46.720416", "MEAN_MOTION": 14.79813412, "ECCENTRICITY": 0.00228625, "INCLINATION": 73.9959, "RA_OF_ASC_NODE": 235.3942, "ARG_OF_PERICENTER": 84.0042, "MEAN_ANOMALY": 307.3858, "EPHEMERIS_TYPE": 0, "CLASSIFICATION_TYPE": "U", "NORAD_CAT_ID": 33836, "ELEMENT_SET_NO": 999, "REV_AT_EPOCH": 64265, "BSTAR": 0.0011319562, "MEAN_MOTION_DOT": 8.54e-05, "MEAN_MOTION_DDOT": 0}, "tle": {"line1": "1 33836U 93036CD  25358.67623519  .00008540  00000+0  11320-2 0  9991", "line2": "2 33836  73.9959 235.3942 0022862  84.0042 307.3858 14.79813412642650"}}, "geometry": {"type": "Point", "coordinates": [-134.1224773317751, -26.06650325330277]}}, {"type": "Feature", "properties": {"norad_id": 33837, "name": "COSMOS 2251 DEB", "group": "cosmos-2251-debris", "lat": 64.7005776817369, "lon": 69.08485368329221, "alt_km": 742.0858530415317, "timestamp": "2025-12-25T09:48:52.681942+00:00", "meta": {"OBJECT_NAME": "COSMOS 2251 DEB", "OBJECT_ID": "1993-036CE", "EPOCH": "2025-12-25T02:52:14.659104", "MEAN_MOTION": 14.50726372, "ECCENTRICITY": 0.0035879, "INCLINATION": 74.0123, "RA_OF_ASC_NODE": 32.2899, "ARG_OF_PERICENTER": 252.0503, "MEAN_ANOMALY": 107.6745, "EPHEMERIS_TYPE": 0, "CLASSIFICATION_TYPE": "U", "NORAD_CAT_ID": 33837, "ELEMENT_SET_NO": 999, "REV_AT_EPOCH": 88975, "BSTAR": 0.00024794, "MEAN_MOTION_DOT": 9.54e-06, "MEAN_MOTION_DDOT": 0}, "tle": {"line1": "1 33837U 93036CE  25359.11961411  .00000954  00000+0  24794-3 0  9999", "line2": "2 33837  74.0123  32.2899 0035879 252.0503 107.6745 14.50726372889759"}}, "geometry": {"type": "Point", "coordinates": [69.08485368329221, 64.7005776817369]}}, {"type": "Feature", "properties": {"norad_id": 33838, "name": "COSMOS 2251 DEB", "group": "cosmos-2251-debris", "lat": -15.561380142244028, "lon": -49.34039634103126, "alt_km": 722.7236955138578, "timestamp": "2025-12-25T09:48:52.681952+00:00", "meta": {"OBJECT_NAME": "COSMOS 2251 DEB", "OBJECT_ID": "1993-036CF", "EPOCH": "2025-12-24T18:32:42.984672", "MEAN_MOTION": 14.48398949, "ECCENTRICITY": 0.00274744, "INCLINATION": 74.0366, "RA_OF_ASC_NODE": 127.2787, "ARG_OF_PERICENTER": 247.5321, "MEAN_ANOMALY": 232.7262, "EPHEMERIS_TYPE": 0, "CLASSIFICATION_TYPE": "U", "NORAD_CAT_ID": 33838, "ELEMENT_SET_NO": 999, "REV_AT_EPOCH": 88743, "BSTAR": 0.00041849362, "MEAN_MOTION_DOT": 1.547e-05, "MEAN_MOTION_DDOT": 0}, "tle": {"line1": "1 33838U 93036CF  25358.77271973  .00001547  00000+0  41849-3 0  9997", "line2": "2 33838  74.0366 127.2787 0027474 247.5321 232.7262 14.48398949887438"}}, "geometry": {"type": "Point", "coordinates": [-49.34039634103126, -15.561380142244028]}}, {"type": "Feature", "properties": {"norad_id": 33839, "name": "COSMOS 2251 DEB", "group": "cosmos-2251-debris", "lat": 43.76419506864371, "lon": -13.774560351519495, "alt_km": 730.352889277844, "timestamp": "2025-12-25T09:48:52.681962+00:00", "meta": {"OBJECT_NAME": "COSMOS 2251 DEB", "OBJECT_ID": "1993-036CG", "EPOCH": "2025-12-23T19:33:34.360128", "MEAN_MOTION": 14.64445826, "ECCENTRICITY": 0.00853576, "INCLINATION": 74.0374, "RA_OF_ASC_NODE": 185.1983, "ARG_OF_PERICENTER": 294.7494, "MEAN_ANOMALY": 79.6279, "EPHEMERIS_TYPE": 0, "CLASSIFICATION_TYPE": "U", "NORAD_CAT_ID": 33839, "ELEMENT_SET_NO": 999, "REV_AT_EPOCH": 89742, "BSTAR": 0.00019226296, "MEAN_MOTION_DOT": 1.039e-05, "MEAN_MOTION_DDOT": 0}, "tle": {"line1": "1 33839U 93036CG  25357.81498102  .00001039  00000+0  19226-3 0  9997", "line2": "2 33839  74.0374 185.1983 0085357 294.7494  79.6279 14.64445826897429"}}, "geometry": {"type": "Point", "coordinates": [-13.774560351519495, 43.76419506864371]}}]}